{"type": "FeatureCollection", "features": [ {"type": "Feature", "properties": {"norad_id": 57401, "name": "TIANMU-1 09", "group": "weather", "lat": -54.239849929894824, "lon": -142.18294304695763, "alt_km": 492.337370241451, "timestamp": "2025-12-25T03:55:55.949225+00:00", "meta": {"OBJECT_NAME": "TIANMU-1 09", "OBJECT_ID": "2023-101C", "EPOCH": "2025-12-24T20:37:20.138304", "MEAN_MOTION": 15.28257041, "ECCENTRICITY": 0.0006238, "INCLINATION": 97.2801, "RA_OF_ASC_NODE": 47.7444, "ARG_OF_PERICENTER": 50.4964, "MEAN_ANOMALY": 309.6826, "EPHEMERIS_TYPE": 0, "CLASSIFICATION_TYPE": "U", "NORAD_CAT_ID": 57401, "ELEMENT_SET_NO": 999, "REV_AT_EPOCH": 13500, "BSTAR": 0.00027752, "MEAN_MOTION_DOT": 7.572e-05, "MEAN_MOTION_DDOT": 0}, "tle": {"line1": "1 57401U 23101C   25358.85926086  .00007572  00000+0  27752-3 0  9997", "line2": "2 57401  97.2801  47.7444 0006238  50.4964 309.6826 15.28257041135001"}}, "geometry": {"type": "Point", "coordinates": [-142.18294304695763, -54.239849929894824]}}, {"type": "Feature", "properties": {"norad_id": 57402, "name": "TIANMU-1 10", "group": "weather", "lat": 45.80917773627817, "lon": 41.34017491043249, "alt_km": 471.6686684510787, "timestamp": "2025-12-25T03:55:55.949247+00:00", "meta": {"OBJECT_NAME": "TIANMU-1 10", "OBJECT_ID": "2023-101D", "EPOCH": "2025-12-24T21:26:41.572608", "MEAN_MOTION": 15.28249469, "ECCENTRICITY": 0.0007953, "INCLINATION": 97.2882, "RA_OF_ASC_NODE": 48.6407, "ARG_OF_PERICENTER": 47.8518, "MEAN_ANOMALY": 312.3396, "EPHEMERIS_TYPE": 0, "CLASSIFICATION_TYPE": "U", "NORAD_CAT_ID": 57402, "ELEMENT_SET_NO": 999, "REV_AT_EPOCH": 13500, "BSTAR": 0.00030004, "MEAN_MOTION_DOT": 8.194e-05, "MEAN_MOTION_DDOT": 0}, "tle": {"line1": "1 57402U 23101D   25358.89353672  .00008194  00000+0  30004-3 0  9992", "line2": "2 57402  97.2882  48.6407 0007953  47.8518 312.3396 15.28249469135008"}}, "geometry": {"type": "Point", "coordinates": [41.34017491043249, 45.80917773627817]}}, {"type": "Feature", "properties": {"norad_id": 57490, "name": "FENGYUN 3F", "group": "weather", "lat": 27.73424215715081, "lon": -108.122899804806, "alt_km": 823.9889288469913, "timestamp": "2025-12-25T03:55:55.949266+00:00", "meta": {"OBJECT_NAME": "FENGYUN 3F", "OBJECT_ID": "2023-111A", "EPOCH": "2025-12-24T20:27:17.138016", "MEAN_MOTION": 14.19896642, "ECCENTRICITY": 8.29e-05, "INCLINATION": 98.7067, "RA_OF_ASC_NODE": 66.9494, "ARG_OF_PERICENTER": 117.0504, "MEAN_ANOMALY": 243.0757, "EPHEMERIS_TYPE": 0, "CLASSIFICATION_TYPE": "U", "NORAD_CAT_ID": 57490, "ELEMENT_SET_NO": 999, "REV_AT_EPOCH": 12412, "BSTAR": 5.7066e-05, "MEAN_MOTION_DOT": 7.8e-07, "MEAN_MOTION_DDOT": 0}, "tle": {"line1": "1 57490U 23111A   25358.85228169  .00000078  00000+0  57066-4 0  9999", "line2": "2 57490  98.7067  66.9494 0000829 117.0504 243.0757 14.19896642124127"}}, "geometry": {"type": "Point", "coordinates": [-108.122899804806, 27.73424215715081]}}, {"type": "Feature", "properties": {"norad_id": 58584, "name": "ARKTIKA-M 2", "group": "weather", "lat": 49.28372264911362, "lon": -42.40458383585479, "alt_km": 26310.715843436075, "timestamp": "2025-12-25T03:55:55.949280+00:00", "meta": {"OBJECT_NAME": "ARKTIKA-M 2", "OBJECT_ID": "2023-198A", "EPOCH": "2025-12-23T19:04:51.780000", "MEAN_MOTION": 2.00602438, "ECCENTRICITY": 0.68658211, "INCLINATION": 63.2256, "RA_OF_ASC_NODE": 173.6885, "ARG_OF_PERICENTER": 268.0594, "MEAN_ANOMALY": 18.8414, "EPHEMERIS_TYPE": 0, "CLASSIFICATION_TYPE": "U", "NORAD_CAT_ID": 58584, "ELEMENT_SET_NO": 999, "REV_AT_EPOCH": 1480, "BSTAR": 0, "MEAN_MOTION_DOT": 2.16e-06, "MEAN_MOTION_DDOT": 0}, "tle": {"line1": "1 58584U 23198A   25357.79504375  .00000216  00000+0  00000+0 0  9992", "line2": "2 58584  63.2256 173.6885 6865821 268.0594  18.8414  2.00602438 14808"}}, "geometry": {"type": "Point", "coordinates": [-42.40458383585479, 49.28372264911362]}}, {"type": "Feature", "properties": {"norad_id": 58645, "name": "TIANMU-1 11", "group": "weather", "lat": 68.36762979907635, "lon": -0.4521501205050432, "alt_km": 490.0748244967044, "timestamp": "2025-12-25T03:55:55.949292+00:00", "meta": {"OBJECT_NAME": "TIANMU-1 11", "OBJECT_ID": "2023-205A", "EPOCH": "2025-12-24T21:19:39.179424", "MEAN_MOTION": 15.24741672, "ECCENTRICITY": 0.0007558, "INCLINATION": 97.3596, "RA_OF_ASC_NODE": 18.2983, "ARG_OF_PERICENTER": 258.3407, "MEAN_ANOMALY": 101.6983, "EPHEMERIS_TYPE": 0, "CLASSIFICATION_TYPE": "U", "NORAD_CAT_ID": 58645, "ELEMENT_SET_NO": 999, "REV_AT_EPOCH": 11094, "BSTAR": 0.00026411, "MEAN_MOTION_DOT": 6.474e-05, "MEAN_MOTION_DDOT": 0}, "tle": {"line1": "1 58645U 23205A   25358.88864791  .00006474  00000+0  26411-3 0  9991", "line2": "2 58645  97.3596  18.2983 0007558 258.3407 101.6983 15.24741672110946"}}, "geometry": {"type": "Point", "coordinates": [-0.4521501205050432, 68.36762979907635]}}, {"type": "Feature", "properties": {"norad_id": 58646, "name": "TIANMU-1 12", "group": "weather", "lat": -80.04119639981316, "lon": 65.76191642360311, "alt_km": 496.18284643910374, "timestamp": "2025-12-25T03:55:55.949303+00:00", "meta": {"OBJECT_NAME": "TIANMU-1 12", "OBJECT_ID": "2023-205B", "EPOCH": "2025-12-24T20:25:16.267008", "MEAN_MOTION": 15.24628593, "ECCENTRICITY": 0.0005975, "INCLINATION": 97.3585, "RA_OF_ASC_NODE": 18.0626, "ARG_OF_PERICENTER": 236.2339, "MEAN_ANOMALY": 123.833, "EPHEMERIS_TYPE": 0, "CLASSIFICATION_TYPE": "U", "NORAD_CAT_ID": 58646, "ELEMENT_SET_NO": 999, "REV_AT_EPOCH": 11092, "BSTAR": 0.00026256, "MEAN_MOTION_DOT": 6.412e-05, "MEAN_MOTION_DDOT": 0}, "tle": {"line1": "1 58646U 23205B   25358.85088272  .00006412  00000+0  26256-3 0  9990", "line2": "2 58646  97.3585  18.0626 0005975 236.2339 123.8330 15.24628593110923"}}, "geometry": {"type": "Point", "coordinates": [65.76191642360311, -80.04119639981316]}}, {"type": "Feature", "properties": {"norad_id": 58647, "name": "TIANMU-1 13", "group": "weather", "lat": 81.34572694025586, "lon": -103.27971696448328, "alt_km": 486.5153749913379, "timestamp": "2025-12-25T03:55:55.949313+00:00", "meta": {"OBJECT_NAME": "TIANMU-1 13", "OBJECT_ID": "2023-205C", "EPOCH": "2025-12-24T21:13:05.244672", "MEAN_MOTION": 15.24671621, "ECCENTRICITY": 0.000664, "INCLINATION": 97.3612, "RA_OF_ASC_NODE": 18.3014, "ARG_OF_PERICENTER": 214.1212, "MEAN_ANOMALY": 145.96, "EPHEMERIS_TYPE": 0, "CLASSIFICATION_TYPE": "U", "NORAD_CAT_ID": 58647, "ELEMENT_SET_NO": 999, "REV_AT_EPOCH": 11092, "BSTAR": 0.00027396, "MEAN_MOTION_DOT": 6.703e-05, "MEAN_MOTION_DDOT": 0}, "tle": {"line1": "1 58647U 23205C   25358.88408848  .00006703  00000+0  27396-3 0  9998", "line2": "2 58647  97.3612  18.3014 0006640 214.1212 145.9600 15.24671621110929"}}, "geometry": {"type": "Point", "coordinates": [-103.27971696448328, 81.34572694025586]}}, {"type": "Feature", "properties": {"norad_id": 58648, "name": "TIANMU-1 14", "group": "weather", "lat": -4.940689388675035, "lon": -162.7261125905332, "alt_km": 491.3745463219657, "timestamp": "2025-12-25T03:55:55.949323+00:00", "meta": {"OBJECT_NAME": "TIANMU-1 14", "OBJECT_ID": "2023-205D", "EPOCH": "2025-12-24T20:49:22.576224", "MEAN_MOTION": 15.24654907, "ECCENTRICITY": 0.0007329, "INCLINATION": 97.3545, "RA_OF_ASC_NODE": 17.6228, "ARG_OF_PERICENTER": 220.3601, "MEAN_ANOMALY": 139.7093, "EPHEMERIS_TYPE": 0, "CLASSIFICATION_TYPE": "U", "NORAD_CAT_ID": 58648, "ELEMENT_SET_NO": 999, "REV_AT_EPOCH": 11092, "BSTAR": 0.00028267, "MEAN_MOTION_DOT": 6.916e-05, "MEAN_MOTION_DDOT": 0}, "tle": {"line1": "1 58648U 23205D   25358.86762241  .00006916  00000+0  28267-3 0  9991", "line2": "2 58648  97.3545  17.6228 0007329 220.3601 139.7093 15.24654907110925"}}, "geometry": {"type": "Point", "coordinates": [-162.7261125905332, -4.940689388675035]}}, {"type": "Feature", "properties": {"norad_id": 58660, "name": "TIANMU-1 19", "group": "weather", "lat": -50.21256922505917, "lon": -78.84865272303838, "alt_km": 485.70645509846054, "timestamp": "2025-12-25T03:55:55.949334+00:00", "meta": {"OBJECT_NAME": "TIANMU-1 19", "OBJECT_ID": "2023-208A", "EPOCH": "2025-12-24T20:38:20.704704", "MEAN_MOTION": 15.28065927, "ECCENTRICITY": 0.000477, "INCLINATION": 97.439, "RA_OF_ASC_NODE": 109.8747, "ARG_OF_PERICENTER": 201.5276, "MEAN_ANOMALY": 158.5763, "EPHEMERIS_TYPE": 0, "CLASSIFICATION_TYPE": "U", "NORAD_CAT_ID": 58660, "ELEMENT_SET_NO": 999, "REV_AT_EPOCH": 11067, "BSTAR": 0.00037585, "MEAN_MOTION_DOT": 0.00010219, "MEAN_MOTION_DDOT": 0}, "tle": {"line1": "1 58660U 23208A   25358.85996186  .00010219  00000+0  37585-3 0  9998", "line2": "2 58660  97.4390 109.8747 0004770 201.5276 158.5763 15.28065927110671"}}, "geometry": {"type": "Point", "coordinates": [-78.84865272303838, -50.21256922505917]}}, {"type": "Feature", "properties": {"norad_id": 58661, "name": "TIANMU-1 20", "group": "weather", "lat": -1.9779630529313652, "lon": 110.89605993592397, "alt_km": 485.11575602906396, "timestamp": "2025-12-25T03:55:55.949343+00:00", "meta": {"OBJECT_NAME": "TIANMU-1 20", "OBJECT_ID": "2023-208B", "EPOCH": "2025-12-24T20:05:20.118624", "MEAN_MOTION": 15.29256139, "ECCENTRICITY": 0.000679, "INCLINATION": 97.4327, "RA_OF_ASC_NODE": 110.3112, "ARG_OF_PERICENTER": 215.7557, "MEAN_ANOMALY": 144.3229, "EPHEMERIS_TYPE": 0, "CLASSIFICATION_TYPE": "U", "NORAD_CAT_ID": 58661, "ELEMENT_SET_NO": 999, "REV_AT_EPOCH": 11074, "BSTAR": 0.00034263, "MEAN_MOTION_DOT": 9.658e-05, "MEAN_MOTION_DDOT": 0}, "tle": {"line1": "1 58661U 23208B   25358.83703841  .00009658  00000+0  34263-3 0  9996", "line2": "2 58661  97.4327 110.3112 0006790 215.7557 144.3229 15.29256139110744"}}, "geometry": {"type": "Point", "coordinates": [110.89605993592397, -1.9779630529313652]}}]}